{"fetched_at":"2026-03-29T16:36:15Z","count":15609,"tles":[{"name":"STARLINK-33594","line1":"1 62770U 25015N   26087.81286929  .00026081  00000+0  88921-3 0  9990","line2":"2 62770  53.1579 233.2993 0001019  71.0965 289.0146 15.30214781 67414","category":"Starlink"}]}